{"version": 0.6, "generator": "Overpass API 0.7.62.4 2390de5a", "osm3s": {"timestamp_osm_base": "2024-11-26T15:09:15Z", "copyright": "The data included in this document is from www.openstreetmap.org. The data is made available under ODbL."}, "elements": [{"type": "node", "id": 29269886, "lat": 51.5228224, "lon": -0.1547768, "tags": {"addr:city": "London", "addr:housenumber": "8-10", "addr:postcode": "NW1 5LR", "addr:street": "Marylebone Road", "email": "guest.experience@madame-tussauds.com", "fee": "yes", "fhrs:confidence_management": "10", "fhrs:hygiene": "5", "fhrs:id": "428012", "fhrs:local_authority_id": "01066/4000/0/000", "fhrs:rating": "4", "fhrs:structural": "5", "name": "Madame Tussauds", "name:en": "Madame Tussauds", "name:ru": "\u041c\u0430\u0434\u0430\u043c \u0422\u044e\u0441\u0441\u043e", "name:zh": "\u675c\u838e\u592b\u4eba\u8721\u50cf\u9986", "opening_hours": "Mo-Fr 09:30-17:30; Sa-Su 09:00-18:00", "phone": "+44 871 894 3000", "source:addr": "FSA Food Hygiene Ratings Database", "source:postcode": "FSA Food Hygiene Ratings Database", "toilets:wheelchair": "yes", "tourism": "museum", "website": "https://www.madametussauds.co.uk/london", "wheelchair": "yes", "wheelchair:description": "Bis auf die Bustour am Ende kann man sich alles ansehen. Und wenn man Hilfe braucht um sich mit einer Figur fotografieren zu lassen sind die Mitarbeiter zur Stelle.", "wikidata": "Q186309", "wikipedia": "en:Madame Tussauds"}}, {"type": "node", "id": 352672454, "lat": 51.5093087, "lon": -0.1403344}, {"type": "node", "id": 352672455, "lat": 51.5096262, "lon": -0.139481}, {"type": "node", "id": 352672456, "lat": 51.5092933, "lon": -0.1391286}, {"type": "node", "id": 352672457, "lat": 51.5092363, "lon": -0.1392815}, {"type": "node", "id": 352672458, "lat": 51.5091049, "lon": -0.1391757}, {"type": "node", "id": 352672459, "lat": 51.5090575, "lon": -0.1393041}, {"type": "node", "id": 352672460, "lat": 51.5089555, "lon": -0.1395798}, {"type": "node", "id": 352672461, "lat": 51.5089144, "lon": -0.1396952}, {"type": "node", "id": 352672463, "lat": 51.5088882, "lon": -0.1399259}, {"type": "node", "id": 566313930, "lat": 51.5116534, "lon": -0.1214658}, {"type": "node", "id": 566313931, "lat": 51.5118537, "lon": -0.1216969}, {"type": "node", "id": 566313932, "lat": 51.511932, "lon": -0.1215254}, {"type": "node", "id": 672741997, "lat": 51.4901511, "lon": -0.1293639, "tags": {"name": "Chelsea Space", "tourism": "museum", "website": "https://www.chelseaspace.org"}}, {"type": "node", "id": 1115501055, "lat": 51.5100143, "lon": -0.1398528}, {"type": "node", "id": 1115501056, "lat": 51.5096959, "lon": -0.1407119}, {"type": "node", "id": 1115501059, "lat": 51.5095095, "lon": -0.1405259}, {"type": "node", "id": 1115501060, "lat": 51.5096979, "lon": -0.1397131}, {"type": "node", "id": 1139387224, "lat": 51.5116639, "lon": -0.112512}, {"type": "node", "id": 1139387413, "lat": 51.5116756, "lon": -0.1123537}, {"type": "node", "id": 1139387420, "lat": 51.5117459, "lon": -0.1120952}, {"type": "node", "id": 1139387462, "lat": 51.511558, "lon": -0.1120781}, {"type": "node", "id": 1139387646, "lat": 51.5117474, "lon": -0.112457}, {"type": "node", "id": 1139387827, "lat": 51.5117373, "lon": -0.1125334}, {"type": "node", "id": 1139387906, "lat": 51.511542, "lon": -0.1123175}, {"type": "node", "id": 1201169498, "lat": 51.5076918, "lon": -0.1249319}, {"type": "node", "id": 1201169593, "lat": 51.5076775, "lon": -0.1249045}, {"type": "node", "id": 1201169621, "lat": 51.5076516, "lon": -0.1248623}, {"type": "node", "id": 1201169706, "lat": 51.5075895, "lon": -0.1249545}, {"type": "node", "id": 1201169759, "lat": 51.5076173, "lon": -0.1250049, "tags": {"addr:city": "London", "addr:housenumber": "36", "addr:street": "Craven Street"}}, {"type": "node", "id": 1201169782, "lat": 51.5076252, "lon": -0.1250193}, {"type": "node", "id": 1201169846, "lat": 51.5076779, "lon": -0.1248285}, {"type": "node", "id": 1289223308, "lat": 51.4998279, "lon": -0.142551, "tags": {"fee": "yes", "fee:conditional": "no @ (age < 5)", "name": "Queen's Gallery", "tourism": "museum", "website": "https://www.rct.uk/visit/the-queens-gallery-buckingham-palace", "wheelchair": "yes", "wikidata": "Q1434767", "wikipedia": "en:Queen's Gallery"}}, {"type": "node", "id": 1349324845, "lat": 51.503555, "lon": -0.1519942}, {"type": "node", "id": 1349324847, "lat": 51.5036584, "lon": -0.1515054}, {"type": "node", "id": 1422466335, "lat": 51.5100173, "lon": -0.1424387}, {"type": "node", "id": 1422466336, "lat": 51.5095918, "lon": -0.1423174}, {"type": "node", "id": 1422466339, "lat": 51.5096726, "lon": -0.1421033}, {"type": "node", "id": 1422466344, "lat": 51.5099293, "lon": -0.1426672}, {"type": "node", "id": 1474511348, "lat": 51.5173282, "lon": -0.1505188}, {"type": "node", "id": 1474511372, "lat": 51.5173442, "lon": -0.1505261}, {"type": "node", "id": 1474511376, "lat": 51.5173528, "lon": -0.150379}, {"type": "node", "id": 1474511387, "lat": 51.517385, "lon": -0.1505447}, {"type": "node", "id": 1474511394, "lat": 51.5174097, "lon": -0.1504049}, {"type": "node", "id": 1493424622, "lat": 51.5129421, "lon": -0.1458842, "tags": {"addr:housenumber": "25", "addr:street": "Brook Street", "name": "Handel & Hendrix", "tourism": "museum", "website": "https://handelhendrix.org/", "wikidata": "Q2920095", "wikipedia": "en:Handel & Hendrix in London"}}, {"type": "node", "id": 1720872017, "lat": 51.5035842, "lon": -0.1518466}, {"type": "node", "id": 1720872021, "lat": 51.5035412, "lon": -0.1518232}, {"type": "node", "id": 1720872025, "lat": 51.5036231, "lon": -0.1516622}, {"type": "node", "id": 1720872027, "lat": 51.5035797, "lon": -0.1516384}, {"type": "node", "id": 1961872713, "lat": 51.5033171, "lon": -0.1518624}, {"type": "node", "id": 1961939945, "lat": 51.5034104, "lon": -0.1514429}, {"type": "node", "id": 1973754624, "lat": 51.5033279, "lon": -0.1517277}, {"type": "node", "id": 1973754625, "lat": 51.5033429, "lon": -0.1517359}, {"type": "node", "id": 1973754626, "lat": 51.5033654, "lon": -0.151557}, {"type": "node", "id": 1973754628, "lat": 51.5033831, "lon": -0.151567}, {"type": "node", "id": 1973754630, "lat": 51.5034256, "lon": -0.1514515}, {"type": "node", "id": 1973754631, "lat": 51.5034291, "lon": -0.1514318}, {"type": "node", "id": 1973754635, "lat": 51.5035113, "lon": -0.1515008}, {"type": "node", "id": 1973754636, "lat": 51.5035272, "lon": -0.1514307}, {"type": "node", "id": 2074869386, "lat": 51.5021983, "lon": -0.1291995}, {"type": "node", "id": 2074869391, "lat": 51.5022024, "lon": -0.1293076}, {"type": "node", "id": 2074869393, "lat": 51.5022264, "lon": -0.1291968}, {"type": "node", "id": 2074869395, "lat": 51.5022306, "lon": -0.1293048}, {"type": "node", "id": 2271778924, "lat": 51.508883, "lon": -0.1398842}, {"type": "node", "id": 2271778934, "lat": 51.5089044, "lon": -0.1398276}, {"type": "node", "id": 2271778936, "lat": 51.5089163, "lon": -0.1397613}, {"type": "node", "id": 2271778937, "lat": 51.508924, "lon": -0.1397031}, {"type": "node", "id": 2271778939, "lat": 51.5089257, "lon": -0.1398196}, {"type": "node", "id": 2271778941, "lat": 51.5089322, "lon": -0.1397102}, {"type": "node", "id": 2271778943, "lat": 51.5089481, "lon": -0.1398403}, {"type": "node", "id": 2271778947, "lat": 51.5089615, "lon": -0.1397996}, {"type": "node", "id": 2271778963, "lat": 51.5091338, "lon": -0.1391699}, {"type": "node", "id": 2271778965, "lat": 51.5091448, "lon": -0.1391662}, {"type": "node", "id": 2271778967, "lat": 51.509187, "lon": -0.1390605}, {"type": "node", "id": 2271778985, "lat": 51.5092145, "lon": -0.1392595}, {"type": "node", "id": 2271778987, "lat": 51.5092603, "lon": -0.1391355}, {"type": "node", "id": 2271778992, "lat": 51.509345, "lon": -0.1392242}, {"type": "node", "id": 2271778994, "lat": 51.5093567, "lon": -0.1391919}, {"type": "node", "id": 2271778995, "lat": 51.5094678, "lon": -0.1403312}, {"type": "node", "id": 2271778996, "lat": 51.509551, "lon": -0.1404175}, {"type": "node", "id": 2271778997, "lat": 51.5095784, "lon": -0.1393647}, {"type": "node", "id": 2271778998, "lat": 51.5096659, "lon": -0.1396824}, {"type": "node", "id": 2271779000, "lat": 51.5097131, "lon": -0.1395556}, {"type": "node", "id": 2271779001, "lat": 51.5097288, "lon": -0.1397313}, {"type": "node", "id": 2271779002, "lat": 51.5097729, "lon": -0.139613}, {"type": "node", "id": 2271779003, "lat": 51.5097786, "lon": -0.1397791}, {"type": "node", "id": 2271779004, "lat": 51.5098214, "lon": -0.1396642}, {"type": "node", "id": 2271779005, "lat": 51.5098498, "lon": -0.1396915}, {"type": "node", "id": 2271779006, "lat": 51.5098555, "lon": -0.139676}, {"type": "node", "id": 2271779007, "lat": 51.5099791, "lon": -0.1398189}, {"type": "node", "id": 2271779008, "lat": 51.5099857, "lon": -0.1398011}, {"type": "node", "id": 2271782270, "lat": 51.5095586, "lon": -0.1394212}, {"type": "node", "id": 2271782273, "lat": 51.5096126, "lon": -0.1395083}, {"type": "node", "id": 2271782277, "lat": 51.5096454, "lon": -0.1394286}, {"type": "node", "id": 2628565063, "lat": 51.5119461, "lon": -0.1208228}, {"type": "node", "id": 2628565064, "lat": 51.5120097, "lon": -0.1208968}, {"type": "node", "id": 2628565071, "lat": 51.5120371, "lon": -0.1209287}, {"type": "node", "id": 2628565075, "lat": 51.5120889, "lon": -0.1217107}, {"type": "node", "id": 2628565081, "lat": 51.5121594, "lon": -0.1215529}, {"type": "node", "id": 2628565083, "lat": 51.5121775, "lon": -0.1210922}, {"type": "node", "id": 2628565085, "lat": 51.512191, "lon": -0.1214818}, {"type": "node", "id": 2628565087, "lat": 51.5122077, "lon": -0.1215013}, {"type": "node", "id": 2628565089, "lat": 51.5122116, "lon": -0.1214927}, {"type": "node", "id": 2628565091, "lat": 51.5122266, "lon": -0.1211494}, {"type": "node", "id": 2628565094, "lat": 51.5122442, "lon": -0.1214204}, {"type": "node", "id": 2628565098, "lat": 51.5122747, "lon": -0.1213529}, {"type": "node", "id": 2628565100, "lat": 51.5123183, "lon": -0.1212562}, {"type": "node", "id": 2936174036, "lat": 51.5098248, "lon": -0.1422569}, {"type": "node", "id": 2936174038, "lat": 51.5098341, "lon": -0.1422338}, {"type": "node", "id": 2936174043, "lat": 51.5099297, "lon": -0.1423407}, {"type": "node", "id": 2936174047, "lat": 51.5099907, "lon": -0.1424089}, {"type": "node", "id": 3060888053, "lat": 51.5091237, "lon": -0.1391942}, {"type": "node", "id": 3635192295, "lat": 51.5118919, "lon": -0.1216125, "tags": {"entrance": "main"}}, {"type": "node", "id": 3730865100, "lat": 51.5215268, "lon": -0.1499242}, {"type": "node", "id": 3916613190, "lat": 51.5237629, "lon": -0.1584743, "tags": {"addr:city": "London", "addr:housenumber": "221b", "addr:street": "Baker Street", "fee": "yes", "level": "0-1", "name": "The Sherlock Holmes Museum and shop", "name:en": "Sherlock Holmes Museum", "name:zh": "\u798f\u723e\u6469\u65af\u535a\u7269\u9928", "opening_hours": "Mo-Su 09:30-18:00", "phone": "+44 20 7224 3688", "tourism": "museum", "website": "https://www.sherlock-holmes.co.uk/", "wheelchair": "no", "wikidata": "Q1990172"}}, {"type": "node", "id": 4386384410, "lat": 51.5090022, "lon": -0.1394536, "tags": {"entrance": "main"}}, {"type": "node", "id": 4749096025, "lat": 51.5000475, "lon": -0.1361252, "tags": {"email": "guardsmuseum@aol.com", "name": "The Guards Museum", "name:hu": "Kir\u00e1lyi Test\u0151rs\u00e9g M\u00faueuma", "opening_hours": "Mo-Su 10:00-16:00", "tourism": "museum", "website": "https://theguardsmuseum.com/", "wikidata": "Q3521171", "wikipedia": "en:The Guards Museum"}}, {"type": "node", "id": 4813058490, "lat": 51.5077001, "lon": -0.1248682}, {"type": "node", "id": 5071252726, "lat": 51.5049487, "lon": -0.1271564, "tags": {"fee": "yes", "name": "Household Cavalry Museum", "tourism": "museum", "website": "https://householdcavalry.co.uk/museum/", "wheelchair": "yes"}}, {"type": "node", "id": 5323721988, "lat": 51.5078919, "lon": -0.1253919, "tags": {"fee": "unknown", "level": "-1", "name": "British Optical Association Museum", "note": "Open weekdays, by appointment only (also may be open on Open House London weekend).", "operator": "The College of Optometrists", "phone": "+44 20 7766 4353", "tourism": "museum", "website": "https://www.college-optometrists.org/the-british-optical-association-museum", "wheelchair": "no", "wikidata": "Q14993329", "wikipedia": "en:British Optical Association"}}, {"type": "node", "id": 5323722141, "lat": 51.5076055, "lon": -0.1249836, "tags": {"colour": "black", "erected_by": "London County Council", "historic": "memorial", "inscription": "Benjamin Franklin (1706-1790) Lived Here", "memorial": "plaque", "name": "Benjamin Franklin", "openplaques:id": "348"}}, {"type": "node", "id": 5397035903, "lat": 51.5118778, "lon": -0.1216431}, {"type": "node", "id": 5397035904, "lat": 51.5119035, "lon": -0.1215873}, {"type": "node", "id": 5397035912, "lat": 51.5118058, "lon": -0.1216412}, {"type": "node", "id": 5397035914, "lat": 51.5117328, "lon": -0.1212954}, {"type": "node", "id": 5412585922, "lat": 51.5012993, "lon": -0.1665781, "tags": {"addr:city": "London", "addr:housename": "Kent House (Third Floor)", "addr:postcode": "SW7 1BX", "addr:street": "Rutland Gardens", "name": "Memorial Scrolls Trust", "tourism": "museum", "website": "https://memorialscrollstrust.org/"}}, {"type": "node", "id": 5863299577, "lat": 51.5214865, "lon": -0.150151}, {"type": "node", "id": 5863299578, "lat": 51.5214113, "lon": -0.1501166}, {"type": "node", "id": 5863299579, "lat": 51.5214017, "lon": -0.1501099}, {"type": "node", "id": 5863299580, "lat": 51.5214444, "lon": -0.1498875}, {"type": "node", "id": 6030342324, "lat": 51.501573, "lon": -0.1729426}, {"type": "node", "id": 6030342325, "lat": 51.5012766, "lon": -0.1729045}, {"type": "node", "id": 6030342334, "lat": 51.5015782, "lon": -0.1728372}, {"type": "node", "id": 6030342335, "lat": 51.5012812, "lon": -0.172802}, {"type": "node", "id": 6287936436, "lat": 51.5214544, "lon": -0.1501391}, {"type": "node", "id": 6287936437, "lat": 51.5214362, "lon": -0.1502393}, {"type": "node", "id": 6287936438, "lat": 51.5213959, "lon": -0.1502211}, {"type": "node", "id": 6298508169, "lat": 51.5173371, "lon": -0.1504683}, {"type": "node", "id": 6414630967, "lat": 51.5233717, "lon": -0.1522712, "tags": {"addr:city": "London", "addr:housename": "Royal Academy of Music", "addr:postcode": "NW1 5HT", "addr:street": "Marylebone Road", "museum": "history", "name": "Royal Academy of Music Museum", "opening_hours": "Fr 11:00-18:00", "tourism": "museum", "website": "https://www.ram.ac.uk/museum"}}, {"type": "node", "id": 6525008514, "lat": 51.528945, "lon": -0.1743025, "tags": {"addr:city": "London", "addr:housename": "Lord's Cricket Ground", "addr:postcode": "NW8 8QN", "addr:street": "St John's Wood Road", "fee": "yes", "museum": "history", "name": "Lord's MCC Cricket Museum", "operator": "MCC", "operator:type": "private", "tourism": "museum", "website": "https://www.lords.org/mcc/heritage-collections"}}, {"type": "node", "id": 7046046492, "lat": 51.5175094, "lon": -0.1530662, "tags": {"fee": "no", "name": "The Wallace Collection", "name:en": "The Wallace Collection", "name:zh": "\u534e\u52d2\u65af\u5178\u85cf\u9986", "opening_hours": "10:00-17:00", "toilets:wheelchair": "yes", "tourism": "museum", "website": "https://www.wallacecollection.org/", "wheelchair": "yes"}}, {"type": "node", "id": 7261799916, "lat": 51.5175767, "lon": -0.1385815, "tags": {"addr:city": "London", "addr:housenumber": "63", "addr:postcode": "W1A 3AE", "addr:street": "Wells Street", "fee": "yes", "museum": "art", "name": "The Cartoon Museum", "opening_hours": "Tu, We, Fr, Sa 10:30-17:30; Th 10:30-20:00; Su 12:00-16:00", "phone": "+44 20 7580 8155", "tourism": "museum", "website": "https://www.cartoonmuseum.org", "wikidata": "Q7721464", "wikipedia": "en:The Cartoon Museum"}}, {"type": "node", "id": 8983812591, "lat": 51.5282751, "lon": -0.1731406, "tags": {"fee": "yes", "name": "MCC Museum and Tour", "tourism": "museum", "website": "https://www.lords.org/lords/lord-s-experience/tours"}}, {"type": "node", "id": 9337423247, "lat": 51.5132783, "lon": -0.1347714, "tags": {"addr:city": "London", "addr:housenumber": "95", "addr:postcode": "W1F 0DW", "addr:street": "Berwick Street", "fee": "no", "museum": "art", "name": "Museum of Youth Culture", "opening_hours": "Mo-Su 12:00-18:00", "tourism": "museum", "website": "https://museumofyouthculture.com"}}, {"type": "node", "id": 11162841264, "lat": 51.5124606, "lon": -0.1210861, "tags": {"name": "London Film Museum (incl. \"Bond in Motion\")", "survey:date": "2023-09-02", "tourism": "museum"}}, {"type": "node", "id": 11346255514, "lat": 51.5153317, "lon": -0.1430083, "tags": {"addr:housenumber": "248", "addr:street": "Oxford Street", "check_date": "2024-04-01", "name": "Twist Museum", "opening_hours": "Mo-Th 11:00-19:30; Fr 11:00-21:00; Sa 10:00-21:00; Su 10:00-18:30", "tourism": "museum", "website": "https://twistmuseum.com", "wikidata": "Q122699778"}}, {"type": "node", "id": 12064506169, "lat": 51.5134897, "lon": -0.1217257, "tags": {"addr:city": "London", "addr:housenumber": "28", "addr:postcode": "WC2E 7AW", "addr:street": "Bow Street", "name": "Bow Street Police Museum", "opening_hours": "Fr-Su 11:00-16:30", "tourism": "museum", "website": "https://bowstreetpolicemuseum.org.uk/"}}, {"type": "way", "id": 31510288, "nodes": [352672454, 2271782273, 352672455, 2271782277, 2271778997, 2271782270, 2271778992, 2271778994, 352672456, 352672457, 2271778985, 2271778987, 2271778967, 2271778965, 2271778963, 3060888053, 352672458, 352672459, 4386384410, 352672460, 352672461, 2271778937, 2271778941, 2271778936, 2271778947, 2271778943, 2271778939, 2271778934, 2271778924, 352672463, 352672454], "tags": {"addr:city": "London", "addr:housename": "Burlington House", "addr:postcode": "W1J 0BD", "addr:street": "Piccadilly", "alt_name": "RA", "area": "yes", "description": "The Royal Academy of Arts is one of Britain's foremost cultural institutions and a major attraction located in the heart of Piccadilly. Established in 1768 and run to this day by eminent artists, the Academy is home to a world renowned exhibition program.", "heritage": "2", "heritage:operator": "he", "heritage:website": "https://historicengland.org.uk/listing/the-list/list-entry/1226676", "listed_status": "Grade II*", "name": "Royal Academy of Arts", "name:be-tarask": "\u041a\u0430\u0440\u0430\u043b\u0435\u045e\u0441\u043a\u0430\u044f \u0430\u043a\u0430\u0434\u044d\u043c\u0456\u044f \u043c\u0430\u0441\u0442\u0430\u0446\u0442\u0432\u0430\u045e", "phone": "+44 20 7300 8000", "ref:GB:nhle": "1226676", "tourism": "museum", "website": "https://www.royalacademy.org.uk", "wheelchair": "yes", "wikidata": "Q270920", "wikipedia": "en:Royal Academy of Arts"}}, {"type": "way", "id": 44599803, "nodes": [2628565075, 2628565081, 2628565085, 2628565087, 2628565089, 2628565094, 2628565098, 2628565100, 2628565091, 2628565083, 2628565071, 2628565064, 2628565063, 5397035914, 566313930, 5397035912, 566313931, 5397035903, 3635192295, 5397035904, 566313932, 2628565075], "tags": {"addr:city": "London", "addr:postcode": "WC2E 7BB", "addr:street": "Covent Garden Piazza", "building": "yes", "building:levels": "2", "building:material": "brick", "contact:facebook": "ltmuseum", "contact:instagram": "ltmuseum", "contact:phone": "+44 20 7379 6344", "contact:twitter": "ltmuseum", "contact:website": "https://www.ltmuseum.co.uk", "fee": "yes", "museum": "transport", "name": "London Transport Museum", "name:fr": "Mus\u00e9e du transport de Londres", "opening_hours": "Mo-Su 10:00-17:00", "operator": "Transport for London (TfL)", "roof:colour": "darkgrey", "toilets:wheelchair": "yes", "tourism": "museum", "website": "https://www.ltmuseum.co.uk", "wheelchair": "yes", "wikidata": "Q1541098", "wikipedia": "en:London Transport Museum"}}, {"type": "way", "id": 96237005, "nodes": [1115501055, 1115501056, 1115501059, 2271778996, 2271778995, 1115501060, 2271778998, 2271779000, 2271779002, 2271779001, 2271779003, 2271779004, 2271779005, 2271779006, 2271779008, 2271779007, 1115501055], "tags": {"addr:city": "London", "addr:housenumber": "6", "addr:street": "Burlington Gardens", "amenity": "college", "building": "yes", "fixme": "Check the split between this (which is marked museum on OS) and the gallery to the south (marked Acad on OS).", "heritage": "2", "heritage:operator": "he", "heritage:website": "https://historicengland.org.uk/listing/the-list/list-entry/1291018", "listed_status": "Grade II*", "name": "Royal Academy", "name:es": "Academia Real de las Artes.", "ref:GB:nhle": "1291018", "source": "local_knowledge;OS", "tourism": "museum", "wikidata": "Q4642494", "wikipedia": "en:6 Burlington Gardens", "year_of_construction": "1866\u20131869"}}, {"type": "way", "id": 98485763, "nodes": [1139387827, 1139387224, 1139387413, 1139387906, 1139387462, 1139387420, 1139387646, 1139387827], "tags": {"addr:city": "London", "addr:housenumber": "2", "addr:postcode": "WC2R 3BD", "addr:street": "Temple Place", "building": "yes", "name": "Two Temple Place", "tourism": "museum", "website": "https://twotempleplace.org/", "wheelchair": "limited", "wikidata": "Q7859280", "wikipedia": "en:Two Temple Place"}}, {"type": "way", "id": 104081033, "nodes": [1201169846, 1201169621, 1201169706, 5323722141, 1201169759, 1201169782, 1201169498, 1201169593, 4813058490, 1201169846], "tags": {"addr:city": "London", "addr:housename": "Craven Street", "addr:housenumber": "36", "addr:postcode": "WC2N 5NF", "addr:street": "Craven Street", "building": "yes", "building:colour": "brown", "building:levels": "4", "building:material": "brick", "check_date:opening_hours": "2023-09-05", "fee": "yes", "fee:conditional": "no @ (age < 12)", "heritage": "2", "heritage:operator": "he", "heritage:website": "https://historicengland.org.uk/listing/the-list/list-entry/1066930", "listed_status": "Grade I", "name": "Benjamin Franklin House", "opening_hours": "Fr-Su 12:00-17:00", "ref:GB:nhle": "1066930", "roof:colour": "darkgrey", "source": "bing", "tourism": "museum", "website": "https://benjaminfranklinhouse.org/", "wheelchair": "no", "wikidata": "Q4888645", "wikipedia": "en:Benjamin Franklin House"}}, {"type": "way", "id": 120316250, "nodes": [1961872713, 1973754625, 1973754624, 1973754626, 1973754628, 1961939945, 1973754630, 1973754631, 1973754635, 1973754636, 1349324847, 1720872025, 1720872027, 1720872021, 1720872017, 1349324845, 1961872713], "tags": {"addr:city": "London", "addr:housename": "Apsley House", "addr:housenumber": "149", "addr:postcode": "W1J 7NT", "addr:street": "Piccadilly", "alt_name": "Number One, London", "architect": "Robert Adam", "architect:wikidata": "Q312635", "building": "yes", "building:levels": "3", "fee": "yes", "height": "20", "heritage": "2", "heritage:operator": "Historic England", "heritage:website": "https://historicengland.org.uk/listing/the-list/list-entry/1226873", "inscription_date": "1970-02-05", "listed_status": "Grade I", "museum": "history", "name": "Apsley House", "name:en": "Apsley House", "name:es": "Apsley House.", "name:zh": "\u963f\u666e\u65af\u5229\u5927\u5c4b\uff08\u60e0\u7075\u987f\u516c\u7235\uff09", "old_name": "Wellington Museum", "opening_hours": "We-Su 11:00-17:00", "operator": "English Heritage", "ref:GB:nhle": "1226873", "tourism": "museum", "website": "https://www.wellingtoncollection.co.uk/", "wikidata": "Q622206", "wikipedia": "en:Apsley House", "year_of_construction": "1771\u20131778"}}, {"type": "way", "id": 128812567, "nodes": [1422466344, 1422466336, 1422466339, 2936174036, 2936174038, 2936174043, 2936174047, 1422466335, 1422466344], "tags": {"addr:city": "London", "addr:housename": "The Royal Institution of Great Britain", "addr:housenumber": "21", "addr:postcode": "W1S 4BS", "addr:street": "Albemarle Street", "alt_name": "Ri", "building": "public", "building:levels": "3", "building:material": "stone", "heritage": "2", "heritage:operator": "he", "heritage:website": "https://historicengland.org.uk/listing/the-list/list-entry/1066521", "int_name": "The Royal Institution of Great Britain", "listed_status": "Grade I", "name": "Royal Institution and Faraday Museum", "ref:GB:nhle": "1066521", "start_date": "1756;1799;1838", "tourism": "museum", "website": "https://www.rigb.org/", "wikidata": "Q2171086", "wikipedia": "en:Royal Institution"}}, {"type": "way", "id": 134060144, "nodes": [1474511387, 1474511372, 1474511348, 6298508169, 1474511376, 1474511394, 1474511387], "tags": {"addr:city": "London", "addr:country": "GB", "addr:housename": "The Brown Collection", "addr:housenumber": "1", "addr:postcode": "W1U 2AF", "addr:street": "Bentinck Mews", "air_conditioning": "yes", "building": "commercial", "building:levels": "3", "email": "contact@glenn-brown.co.uk", "museum": "art", "name": "The Brown Collection", "opening_hours": "We-Sa 10:30-18:00", "operator": "Afterlife Ltd", "operator:type": "private_non_profit", "toilets": "yes", "tourism": "museum", "website": "https://glenn-brown.co.uk/the-brown-collection/", "wheelchair": "yes"}}, {"type": "way", "id": 197206542, "nodes": [2074869393, 2074869386, 2074869391, 2074869395, 2074869393], "tags": {"access": "customers", "addr:city": "London", "addr:postcode": "SW1A 2AQ", "addr:street": "King Charles Street", "alt_name": "Churchill War Rooms", "name": "Churchill Museum and Cabinet War Rooms", "name:en": "Churchill Museum and Cabinet War Rooms", "name:es": "Museo Churchill", "note": "Visit Churchill War Rooms, part of Imperial War Museums, to discover the original Cabinet War Rooms, the wartime bunker which sheltered Churchill and his staff during the Blitz.", "opening_hours:url": "http://www.iwm.org.uk/visits/churchill-war-rooms/directions", "phone": "+44 20 7930 6961", "tourism": "museum", "website": "https://www.iwm.org.uk/visits/churchill-war-rooms", "wheelchair": "yes", "wikidata": "Q1024854", "wikipedia": "en:Churchill War Rooms"}}, {"type": "way", "id": 620603565, "nodes": [5863299577, 6287936436, 6287936437, 6287936438, 5863299578, 5863299579, 5863299580, 3730865100, 5863299577], "tags": {"addr:city": "London", "addr:housenumber": "41", "addr:postcode": "W1G 6JY", "addr:street": "Devonshire Place", "building": "yes", "description": "The Museum of Philatelic History at the Royal Philatelic Society London holds a collection of internationally significant objects. The collection of the Museum of Philatelic History started shortly after the Society\u2019s inception in 1869 and has grown and e", "email": "museumarchives@rpsl.org.uk", "name": "The Museum of Philatelic History", "opening_hours": "Mo-Fr 09:30-16:30", "operator": "Royal Philatelic Society London", "phone": "+44 20 7486 1044", "source": "local knowledge;streetlevel imagery;aerial imagery", "tourism": "museum", "website": "http://www.rpsl.org.uk/museum.asp", "wikidata": "Q3446009"}}, {"type": "way", "id": 640097060, "nodes": [6030342324, 6030342334, 6030342335, 6030342325, 6030342324], "tags": {"addr:housenumber": "20", "addr:street": "Princes Gate", "building": "yes", "name": "Polish Institute and Sikorski Museum", "tourism": "museum", "website": "https://pism.org.uk/", "wikidata": "Q7209930"}}]}